CCSDS_OMM_VERS = 2.0
CREATION_DATE  = 
ORIGINATOR     = 

OBJECT_NAME    = H-2A R/B
OBJECT_ID      = 2006-002B
CENTER_NAME    = EARTH
REF_FRAME      = TEME
TIME_SYSTEM    = UTC
MEAN_ELEMENT_THEORY = SGP/SGP4

EPOCH          = 2026-03-08T10:06:50.299200
MEAN_MOTION    = 15.16390570
ECCENTRICITY   = .00519843
INCLINATION    = 98.2409
RA_OF_ASC_NODE = 214.3354
ARG_OF_PERICENTER = 245.4365
MEAN_ANOMALY   = 114.1443

EPHEMERIS_TYPE = 0
CLASSIFICATION_TYPE = U
NORAD_CAT_ID   = 28932
ELEMENT_SET_NO = 999
REV_AT_EPOCH   = 9424
BSTAR          = .83774676E-3
MEAN_MOTION_DOT = .16785E-3
MEAN_MOTION_DDOT = 0

CCSDS_OMM_VERS = 2.0
CREATION_DATE  = 
ORIGINATOR     = 

OBJECT_NAME    = RESURS-DK 1
OBJECT_ID      = 2006-021A
CENTER_NAME    = EARTH
REF_FRAME      = TEME
TIME_SYSTEM    = UTC
MEAN_ELEMENT_THEORY = SGP/SGP4

EPOCH          = 2026-03-08T14:38:00.946752
MEAN_MOTION    = 15.12735699
ECCENTRICITY   = .00020116
INCLINATION    = 69.9314
RA_OF_ASC_NODE = 239.8164
ARG_OF_PERICENTER = 163.2558
MEAN_ANOMALY   = 196.8675

EPHEMERIS_TYPE = 0
CLASSIFICATION_TYPE = U
NORAD_CAT_ID   = 29228
ELEMENT_SET_NO = 999
REV_AT_EPOCH   = 8736
BSTAR          = .26738637E-3
MEAN_MOTION_DOT = .4591E-4
MEAN_MOTION_DDOT = 0

CCSDS_OMM_VERS = 2.0
CREATION_DATE  = 
ORIGINATOR     = 

OBJECT_NAME    = CZ-4B R/B
OBJECT_ID      = 2006-046C
CENTER_NAME    = EARTH
REF_FRAME      = TEME
TIME_SYSTEM    = UTC
MEAN_ELEMENT_THEORY = SGP/SGP4

EPOCH          = 2026-03-08T14:52:24.388608
MEAN_MOTION    = 15.16892202
ECCENTRICITY   = .00316691
INCLINATION    = 97.5593
RA_OF_ASC_NODE = 112.5313
ARG_OF_PERICENTER = 271.2591
MEAN_ANOMALY   = 88.5014

EPHEMERIS_TYPE = 0
CLASSIFICATION_TYPE = U
NORAD_CAT_ID   = 29507
ELEMENT_SET_NO = 999
REV_AT_EPOCH   = 5988
BSTAR          = .34638887E-3
MEAN_MOTION_DOT = .6842E-4
MEAN_MOTION_DDOT = 0

CCSDS_OMM_VERS = 2.0
CREATION_DATE  = 
ORIGINATOR     = 

OBJECT_NAME    = CZ-2C R/B
OBJECT_ID      = 2007-010B
CENTER_NAME    = EARTH
REF_FRAME      = TEME
TIME_SYSTEM    = UTC
MEAN_ELEMENT_THEORY = SGP/SGP4

EPOCH          = 2026-03-08T07:36:19.096416
MEAN_MOTION    = 14.20245714
ECCENTRICITY   = .00579388
INCLINATION    = 98.3979
RA_OF_ASC_NODE = 180.6645
ARG_OF_PERICENTER = 298.6678
MEAN_ANOMALY   = 60.8682

EPHEMERIS_TYPE = 0
CLASSIFICATION_TYPE = U
NORAD_CAT_ID   = 31114
ELEMENT_SET_NO = 999
REV_AT_EPOCH   = 97952
BSTAR          = .1060795E-3
MEAN_MOTION_DOT = .189E-5
MEAN_MOTION_DDOT = 0

CCSDS_OMM_VERS = 2.0
CREATION_DATE  = 
ORIGINATOR     = 

OBJECT_NAME    = COSMO-SKYMED 1
OBJECT_ID      = 2007-023A
CENTER_NAME    = EARTH
REF_FRAME      = TEME
TIME_SYSTEM    = UTC
MEAN_ELEMENT_THEORY = SGP/SGP4

EPOCH          = 2026-03-08T14:16:19.785216
MEAN_MOTION    = 14.96525751
ECCENTRICITY   = .00011429
INCLINATION    = 97.8868
RA_OF_ASC_NODE = 258.6176
ARG_OF_PERICENTER = 101.5156
MEAN_ANOMALY   = 258.6193

EPHEMERIS_TYPE = 0
CLASSIFICATION_TYPE = U
NORAD_CAT_ID   = 31598
ELEMENT_SET_NO = 999
REV_AT_EPOCH   = 1474
BSTAR          = .48733969E-3
MEAN_MOTION_DOT = .5482E-4
MEAN_MOTION_DDOT = 0

CCSDS_OMM_VERS = 2.0
CREATION_DATE  = 
ORIGINATOR     = 

OBJECT_NAME    = COSMOS 2428
OBJECT_ID      = 2007-029A
CENTER_NAME    = EARTH
REF_FRAME      = TEME
TIME_SYSTEM    = UTC
MEAN_ELEMENT_THEORY = SGP/SGP4

EPOCH          = 2026-03-08T14:44:42.935712
MEAN_MOTION    = 14.12945874
ECCENTRICITY   = .00090784
INCLINATION    = 70.9430
RA_OF_ASC_NODE = 205.5996
ARG_OF_PERICENTER = 278.1267
MEAN_ANOMALY   = 81.8824

EPHEMERIS_TYPE = 0
CLASSIFICATION_TYPE = U
NORAD_CAT_ID   = 31792
ELEMENT_SET_NO = 999
REV_AT_EPOCH   = 96394
BSTAR          = .63586147E-4
MEAN_MOTION_DOT = .71E-6
MEAN_MOTION_DDOT = 0

CCSDS_OMM_VERS = 2.0
CREATION_DATE  = 
ORIGINATOR     = 

OBJECT_NAME    = SL-16 R/B
OBJECT_ID      = 2007-029B
CENTER_NAME    = EARTH
REF_FRAME      = TEME
TIME_SYSTEM    = UTC
MEAN_ELEMENT_THEORY = SGP/SGP4

EPOCH          = 2026-03-08T13:32:19.682016
MEAN_MOTION    = 14.14833249
ECCENTRICITY   = .00023153
INCLINATION    = 70.9759
RA_OF_ASC_NODE = 174.7506
ARG_OF_PERICENTER = 276.3599
MEAN_ANOMALY   = 95.0936

EPHEMERIS_TYPE = 0
CLASSIFICATION_TYPE = U
NORAD_CAT_ID   = 31793
ELEMENT_SET_NO = 999
REV_AT_EPOCH   = 96521
BSTAR          = .28204281E-4
MEAN_MOTION_DOT = .7E-7
MEAN_MOTION_DDOT = 0

CCSDS_OMM_VERS = 2.0
CREATION_DATE  = 
ORIGINATOR     = 

OBJECT_NAME    = KORONAS-FOTON
OBJECT_ID      = 2009-003A
CENTER_NAME    = EARTH
REF_FRAME      = TEME
TIME_SYSTEM    = UTC
MEAN_ELEMENT_THEORY = SGP/SGP4

EPOCH          = 2026-03-08T12:46:37.394400
MEAN_MOTION    = 15.43297157
ECCENTRICITY   = .00112469
INCLINATION    = 82.4274
RA_OF_ASC_NODE = 277.0813
ARG_OF_PERICENTER = 153.2660
MEAN_ANOMALY   = 206.9170

EPHEMERIS_TYPE = 0
CLASSIFICATION_TYPE = U
NORAD_CAT_ID   = 33504
ELEMENT_SET_NO = 999
REV_AT_EPOCH   = 94556
BSTAR          = .3735964E-3
MEAN_MOTION_DOT = .16711E-3
MEAN_MOTION_DDOT = 0

CCSDS_OMM_VERS = 2.0
CREATION_DATE  = 
ORIGINATOR     = 

OBJECT_NAME    = CZ-2C R/B
OBJECT_ID      = 2011-030B
CENTER_NAME    = EARTH
REF_FRAME      = TEME
TIME_SYSTEM    = UTC
MEAN_ELEMENT_THEORY = SGP/SGP4

EPOCH          = 2026-03-08T11:21:20.287008
MEAN_MOTION    = 14.81218145
ECCENTRICITY   = .00525207
INCLINATION    = 97.8549
RA_OF_ASC_NODE = 24.7607
ARG_OF_PERICENTER = 356.0450
MEAN_ANOMALY   = 116.4277

EPHEMERIS_TYPE = 0
CLASSIFICATION_TYPE = U
NORAD_CAT_ID   = 37731
ELEMENT_SET_NO = 999
REV_AT_EPOCH   = 78991
BSTAR          = .33376444E-3
MEAN_MOTION_DOT = .2606E-4
MEAN_MOTION_DDOT = 0

CCSDS_OMM_VERS = 2.0
CREATION_DATE  = 
ORIGINATOR     = 

OBJECT_NAME    = H-2A R/B
OBJECT_ID      = 2012-025E
CENTER_NAME    = EARTH
REF_FRAME      = TEME
TIME_SYSTEM    = UTC
MEAN_ELEMENT_THEORY = SGP/SGP4

EPOCH          = 2026-03-08T10:58:10.084224
MEAN_MOTION    = 14.95158696
ECCENTRICITY   = .00434108
INCLINATION    = 98.4741
RA_OF_ASC_NODE = 34.4046
ARG_OF_PERICENTER = 318.6146
MEAN_ANOMALY   = 41.1786

EPHEMERIS_TYPE = 0
CLASSIFICATION_TYPE = U
NORAD_CAT_ID   = 38341
ELEMENT_SET_NO = 999
REV_AT_EPOCH   = 74803
BSTAR          = .59742908E-3
MEAN_MOTION_DOT = .6616E-4
MEAN_MOTION_DDOT = 0

CCSDS_OMM_VERS = 2.0
CREATION_DATE  = 
ORIGINATOR     = 

OBJECT_NAME    = SHIJIAN-16 (SJ-16)
OBJECT_ID      = 2013-057A
CENTER_NAME    = EARTH
REF_FRAME      = TEME
TIME_SYSTEM    = UTC
MEAN_ELEMENT_THEORY = SGP/SGP4

EPOCH          = 2026-03-08T14:57:46.416960
MEAN_MOTION    = 14.92341202
ECCENTRICITY   = .00154793
INCLINATION    = 74.9736
RA_OF_ASC_NODE = 187.1060
ARG_OF_PERICENTER = 115.6312
MEAN_ANOMALY   = 244.6477

EPHEMERIS_TYPE = 0
CLASSIFICATION_TYPE = U
NORAD_CAT_ID   = 39358
ELEMENT_SET_NO = 999
REV_AT_EPOCH   = 67134
BSTAR          = .3467533E-3
MEAN_MOTION_DOT = .3526E-4
MEAN_MOTION_DDOT = 0

CCSDS_OMM_VERS = 2.0
CREATION_DATE  = 
ORIGINATOR     = 

OBJECT_NAME    = SL-4 R/B
OBJECT_ID      = 2014-021B
CENTER_NAME    = EARTH
REF_FRAME      = TEME
TIME_SYSTEM    = UTC
MEAN_ELEMENT_THEORY = SGP/SGP4

EPOCH          = 2026-03-08T11:02:45.183552
MEAN_MOTION    = 15.39134310
ECCENTRICITY   = .00976841
INCLINATION    = 51.6077
RA_OF_ASC_NODE = 343.2763
ARG_OF_PERICENTER = 98.5370
MEAN_ANOMALY   = 262.6698

EPHEMERIS_TYPE = 0
CLASSIFICATION_TYPE = U
NORAD_CAT_ID   = 39679
ELEMENT_SET_NO = 999
REV_AT_EPOCH   = 65608
BSTAR          = .44531571E-3
MEAN_MOTION_DOT = .20338E-3
MEAN_MOTION_DDOT = 0

